BEIJING 1               
1 28890U 05043A   23053.49858758  .00000606  00000+0  13094-3 0  9997
2 28890  98.1409 176.7404 0016356 110.8874 249.4085 14.61652317923663
HJ-1A                   
1 33320U 08041A   23053.37611307  .00001404  00000+0  19986-3 0  9999
2 33320  97.6558  79.4059 0021893 136.0567 224.2383 14.78160335779306
HJ-1B                   
1 33321U 08041B   23053.52314762  .00002084  00000+0  29031-3 0  9999
2 33321  97.6700  83.6161 0034483 154.5818 205.7082 14.78363932779320
YAOGAN 4                
1 33446U 08061A   23053.40455129  .00002011  00000+0  28631-3 0  9994
2 33446  97.8434 351.3028 0017354  48.4471 311.8224 14.77819052766506
DEIMOS-1                
1 35681U 09041A   23053.45396314  .00001257  00000+0  20598-3 0  9996
2 35681  97.6912 256.3765 0002449 111.2916 248.8534 14.72327674728557
UK-DMC 2                
1 35683U 09041C   23053.58009234  .00001788  00000+0  29342-3 0  9999
2 35683  97.7154 218.4685 0001176  99.6386 260.4935 14.71820403728297
RISAT 1                 
1 38248U 12017A   23053.48615875  .00007230  00000+0  39911-3 0  9990
2 38248  97.5477  67.3225 0005814 108.6776 251.5087 15.14227373596647
DMC3-FM1                
1 40715U 15032A   23053.50915909  .00001404  00000+0  18142-3 0  9996
2 40715  97.8177 299.9843 0007286  68.2341 291.9629 14.82473218410338
DMC3-FM2                
1 40716U 15032B   23053.39696069  .00001443  00000+0  18609-3 0  9998
2 40716  97.8223 300.6505 0009236  70.2975 289.9205 14.82487907410325
DMC3-FM3                
1 40717U 15032C   23053.55342510  .00001423  00000+0  18371-3 0  9990
2 40717  97.8262 301.8271 0010799  67.0988 293.1345 14.82463849410349
